{"type": "FeatureCollection", "features": [ {"type": "Feature", "properties": {"norad_id": 45358, "name": "COSMOS 2545 (760)", "group": "glo-ops", "lat": 52.84421318454146, "lon": -2.3243583606096547, "alt_km": 19152.478446340825, "timestamp": "2025-12-22T20:43:46.109898+00:00", "meta": {"OBJECT_NAME": "COSMOS 2545 (760)", "OBJECT_ID": "2020-018A", "EPOCH": "2025-12-22T07:31:25.141152", "MEAN_MOTION": 2.13102698, "ECCENTRICITY": 0.00113434, "INCLINATION": 64.464, "RA_OF_ASC_NODE": 318.6341, "ARG_OF_PERICENTER": 250.3607, "MEAN_ANOMALY": 109.513, "EPHEMERIS_TYPE": 0, "CLASSIFICATION_TYPE": "U", "NORAD_CAT_ID": 45358, "ELEMENT_SET_NO": 999, "REV_AT_EPOCH": 4489, "BSTAR": 0, "MEAN_MOTION_DOT": -4.2e-07, "MEAN_MOTION_DDOT": 0}, "tle": {"line1": "1 45358U 20018A   25356.31348543 -.00000042  00000+0  00000+0 0  9993", "line2": "2 45358  64.4640 318.6341 0011343 250.3607 109.5130  2.13102698 44898"}}, "geometry": {"type": "Point", "coordinates": [-2.3243583606096547, 52.84421318454146]}}, {"type": "Feature", "properties": {"norad_id": 46805, "name": "COSMOS 2547 (705K)", "group": "glo-ops", "lat": -63.47632730988582, "lon": 126.05691486395763, "alt_km": 19126.57539457157, "timestamp": "2025-12-22T20:43:46.109909+00:00", "meta": {"OBJECT_NAME": "COSMOS 2547 (705K)", "OBJECT_ID": "2020-075A", "EPOCH": "2025-12-22T00:46:38.571168", "MEAN_MOTION": 2.13100252, "ECCENTRICITY": 0.000611, "INCLINATION": 64.5967, "RA_OF_ASC_NODE": 198.3861, "ARG_OF_PERICENTER": 227.6651, "MEAN_ANOMALY": 132.3515, "EPHEMERIS_TYPE": 0, "CLASSIFICATION_TYPE": "U", "NORAD_CAT_ID": 46805, "ELEMENT_SET_NO": 999, "REV_AT_EPOCH": 4013, "BSTAR": 0, "MEAN_MOTION_DOT": 9.6e-07, "MEAN_MOTION_DDOT": 0}, "tle": {"line1": "1 46805U 20075A   25356.03239087  .00000096  00000+0  00000+0 0  9993", "line2": "2 46805  64.5967 198.3861 0006110 227.6651 132.3515  2.13100252 40139"}}, "geometry": {"type": "Point", "coordinates": [126.05691486395763, -63.47632730988582]}}, {"type": "Feature", "properties": {"norad_id": 52984, "name": "COSMOS 2557 (706K)", "group": "glo-ops", "lat": 26.10225225050237, "lon": 127.10480879422914, "alt_km": 19148.114200289605, "timestamp": "2025-12-22T20:43:46.109920+00:00", "meta": {"OBJECT_NAME": "COSMOS 2557 (706K)", "OBJECT_ID": "2022-075A", "EPOCH": "2025-12-21T17:28:49.224000", "MEAN_MOTION": 2.13102032, "ECCENTRICITY": 0.00135441, "INCLINATION": 64.4048, "RA_OF_ASC_NODE": 320.7357, "ARG_OF_PERICENTER": 278.4426, "MEAN_ANOMALY": 81.3985, "EPHEMERIS_TYPE": 0, "CLASSIFICATION_TYPE": "U", "NORAD_CAT_ID": 52984, "ELEMENT_SET_NO": 999, "REV_AT_EPOCH": 2693, "BSTAR": 0, "MEAN_MOTION_DOT": -4.6e-07, "MEAN_MOTION_DDOT": 0}, "tle": {"line1": "1 52984U 22075A   25355.72834750 -.00000046  00000+0  00000+0 0  9999", "line2": "2 52984  64.4048 320.7357 0013544 278.4426  81.3985  2.13102032 26931"}}, "geometry": {"type": "Point", "coordinates": [127.10480879422914, 26.10225225050237]}}, {"type": "Feature", "properties": {"norad_id": 54031, "name": "COSMOS 2559 (707K)", "group": "glo-ops", "lat": -58.007309086741515, "lon": -89.38699251639233, "alt_km": 19140.310549163736, "timestamp": "2025-12-22T20:43:46.109931+00:00", "meta": {"OBJECT_NAME": "COSMOS 2559 (707K)", "OBJECT_ID": "2022-130A", "EPOCH": "2025-12-22T00:24:12.527424", "MEAN_MOTION": 2.13101328, "ECCENTRICITY": 0.00115649, "INCLINATION": 64.377, "RA_OF_ASC_NODE": 320.8148, "ARG_OF_PERICENTER": 191.8741, "MEAN_ANOMALY": 168.0944, "EPHEMERIS_TYPE": 0, "CLASSIFICATION_TYPE": "U", "NORAD_CAT_ID": 54031, "ELEMENT_SET_NO": 999, "REV_AT_EPOCH": 2491, "BSTAR": 0, "MEAN_MOTION_DOT": -4.4e-07, "MEAN_MOTION_DDOT": 0}, "tle": {"line1": "1 54031U 22130A   25356.01681166 -.00000044  00000+0  00000+0 0  9998", "line2": "2 54031  64.3770 320.8148 0011564 191.8741 168.0944  2.13101328 24915"}}, "geometry": {"type": "Point", "coordinates": [-89.38699251639233, -58.007309086741515]}}, {"type": "Feature", "properties": {"norad_id": 54377, "name": "COSMOS 2564 (761)", "group": "glo-ops", "lat": 43.20587469216829, "lon": -135.08931819200512, "alt_km": 19144.602716108762, "timestamp": "2025-12-22T20:43:46.109942+00:00", "meta": {"OBJECT_NAME": "COSMOS 2564 (761)", "OBJECT_ID": "2022-161A", "EPOCH": "2025-12-22T07:55:31.529856", "MEAN_MOTION": 2.13102051, "ECCENTRICITY": 0.00085466, "INCLINATION": 64.7388, "RA_OF_ASC_NODE": 198.5802, "ARG_OF_PERICENTER": 203.7353, "MEAN_ANOMALY": 156.2926, "EPHEMERIS_TYPE": 0, "CLASSIFICATION_TYPE": "U", "NORAD_CAT_ID": 54377, "ELEMENT_SET_NO": 999, "REV_AT_EPOCH": 2386, "BSTAR": 0, "MEAN_MOTION_DOT": 9.5e-07, "MEAN_MOTION_DDOT": 0}, "tle": {"line1": "1 54377U 22161A   25356.33022604  .00000095  00000+0  00000+0 0  9991", "line2": "2 54377  64.7388 198.5802 0008546 203.7353 156.2926  2.13102051 23868"}}, "geometry": {"type": "Point", "coordinates": [-135.08931819200512, 43.20587469216829]}}, {"type": "Feature", "properties": {"norad_id": 57517, "name": "COSMOS 2569 (703K)", "group": "glo-ops", "lat": 34.89098858409363, "lon": 97.36430005979172, "alt_km": 19136.094217785136, "timestamp": "2025-12-22T20:43:46.109955+00:00", "meta": {"OBJECT_NAME": "COSMOS 2569 (703K)", "OBJECT_ID": "2023-114A", "EPOCH": "2025-12-22T08:14:44.480832", "MEAN_MOTION": 2.13104025, "ECCENTRICITY": 0.00108594, "INCLINATION": 65.199, "RA_OF_ASC_NODE": 78.589, "ARG_OF_PERICENTER": 287.0596, "MEAN_ANOMALY": 72.8655, "EPHEMERIS_TYPE": 0, "CLASSIFICATION_TYPE": "U", "NORAD_CAT_ID": 57517, "ELEMENT_SET_NO": 999, "REV_AT_EPOCH": 1849, "BSTAR": 0, "MEAN_MOTION_DOT": -3e-08, "MEAN_MOTION_DDOT": 0}, "tle": {"line1": "1 57517U 23114A   25356.34357038 -.00000003  00000+0  00000+0 0  9992", "line2": "2 57517  65.1990  78.5890 0010859 287.0596  72.8655  2.13104025 18497"}}, "geometry": {"type": "Point", "coordinates": [97.36430005979172, 34.89098858409363]}}, {"type": "Feature", "properties": {"norad_id": 63130, "name": "COSMOS 2584 (704K)", "group": "glo-ops", "lat": 47.21876140505257, "lon": -131.4376908423312, "alt_km": 19125.537933662, "timestamp": "2025-12-22T20:43:46.109969+00:00", "meta": {"OBJECT_NAME": "COSMOS 2584 (704K)", "OBJECT_ID": "2025-042A", "EPOCH": "2025-12-21T07:00:00.966240", "MEAN_MOTION": 2.13103074, "ECCENTRICITY": 0.00077364, "INCLINATION": 64.9804, "RA_OF_ASC_NODE": 78.8547, "ARG_OF_PERICENTER": 219.241, "MEAN_ANOMALY": 140.7412, "EPHEMERIS_TYPE": 0, "CLASSIFICATION_TYPE": "U", "NORAD_CAT_ID": 63130, "ELEMENT_SET_NO": 999, "REV_AT_EPOCH": 625, "BSTAR": 0, "MEAN_MOTION_DOT": -1.1e-07, "MEAN_MOTION_DDOT": 0}, "tle": {"line1": "1 63130U 25042A   25355.29167785 -.00000011  00000+0  00000+0 0  9992", "line2": "2 63130  64.9804  78.8547 0007736 219.2410 140.7412  2.13103074  6250"}}, "geometry": {"type": "Point", "coordinates": [-131.4376908423312, 47.21876140505257]}}, {"type": "Feature", "properties": {"norad_id": 65590, "name": "COSMOS 2596 (708K)", "group": "glo-ops", "lat": -54.57338533879872, "lon": -177.33826774314284, "alt_km": 19119.682036294143, "timestamp": "2025-12-22T20:43:46.109984+00:00", "meta": {"OBJECT_NAME": "COSMOS 2596 (708K)", "OBJECT_ID": "2025-206B", "EPOCH": "2025-12-22T03:59:43.719936", "MEAN_MOTION": 2.1310041, "ECCENTRICITY": 0.00140887, "INCLINATION": 64.7392, "RA_OF_ASC_NODE": 321.1476, "ARG_OF_PERICENTER": 307.2643, "MEAN_ANOMALY": 122.2256, "EPHEMERIS_TYPE": 0, "CLASSIFICATION_TYPE": "U", "NORAD_CAT_ID": 65590, "ELEMENT_SET_NO": 999, "REV_AT_EPOCH": 214, "BSTAR": 0, "MEAN_MOTION_DOT": -4.3e-07, "MEAN_MOTION_DDOT": 0}, "tle": {"line1": "1 65590U 25206B   25356.16647824 -.00000043  00000+0  00000+0 0  9995", "line2": "2 65590  64.7392 321.1476 0014088 307.2643 122.2256  2.13100410  2147"}}, "geometry": {"type": "Point", "coordinates": [-177.33826774314284, -54.57338533879872]}}]}